[{"OBJECT_NAME":"STARLINK-5334","OBJECT_ID":"2023-065G","EPOCH":"2026-03-09T10:15:42.668352","MEAN_MOTION":15.02535538,"ECCENTRICITY":8.835e-5,"INCLINATION":43.002,"RA_OF_ASC_NODE":211.9072,"ARG_OF_PERICENTER":244.2846,"MEAN_ANOMALY":115.7905,"EPHEMERIS_TYPE":0,"CLASSIFICATION_TYPE":"U","NORAD_CAT_ID":56509,"ELEMENT_SET_NO":999,"REV_AT_EPOCH":15658,"BSTAR":1.4867582e-5,"MEAN_MOTION_DOT":-3.0e-8,"MEAN_MOTION_DDOT":0},{"OBJECT_NAME":"HELIOS 1A","OBJECT_ID":"1995-033A","EPOCH":"2026-03-09T15:20:38.403168","MEAN_MOTION":15.05208405,"ECCENTRICITY":0.0012543,"INCLINATION":98.2085,"RA_OF_ASC_NODE":312.7113,"ARG_OF_PERICENTER":11.1866,"MEAN_ANOMALY":348.9636,"EPHEMERIS_TYPE":0,"CLASSIFICATION_TYPE":"U","NORAD_CAT_ID":23605,"ELEMENT_SET_NO":999,"REV_AT_EPOCH":65318,"BSTAR":0.00025897,"MEAN_MOTION_DOT":3.631e-5,"MEAN_MOTION_DDOT":0}]
